LEMUR-1                 
1 40044U 14033AL  26199.21561495  .00000705  00000+0  86805-4 0  9995
2 40044  97.7913 348.3393 0047485 337.9146  22.0022 14.85341695650076
LEMUR-2-GREENBERG       
1 42837U 17042N   26199.05111860  .00009701  00000+0  31416-3 0  9991
2 42837  97.3835  19.5561 0007322 247.3182 112.7286 15.32207983493114
LEMUR-2-ANDIS           
1 42838U 17042P   26199.07205633  .00012392  00000+0  35543-3 0  9991
2 42838  97.3688  19.8725 0007324 246.3680 113.6795 15.35996922493194
LEMUR-2-MONSON          
1 42839U 17042Q   26199.06213274  .00007825  00000+0  28213-3 0  9992
2 42839  97.4096  19.4906 0005480 232.7356 127.3385 15.28798185492881
LEMUR-2-FURIAUS         
1 42840U 17042R   26199.06594683  .00009635  00000+0  32217-3 0  9990
2 42840  97.3783  17.4560 0005737 317.1429  42.9364 15.31188015492937
LEMUR-2-PETERG          
1 42841U 17042S   26199.27016814  .00010927  00000+0  32304-3 0  9992
2 42841  97.3998  24.3800 0003519 207.0916 153.0144 15.35097463493205
LEMUR-2-DEMBITZ         
1 42842U 17042T   26199.02038274  .00009179  00000+0  30732-3 0  9990
2 42842  97.3834  20.4567 0005111 261.2280  98.8382 15.31162504493067
LEMUR-2-ZACHARY         
1 42845U 17042W   26199.27432280  .00030216  00000+0  48661-3 0  9991
2 42845  97.3575  31.6314 0002742 230.4547 129.6464 15.52907758494029
LEMUR-2-AMANDA-SVANTE   
1 48269U 21034B   26199.18688373  .00018224  00000+0  52026-3 0  9994
2 48269  97.5745 278.3300 0004701 135.7113 224.4507 15.36074295285814
LEMUR-2-SPECIAL-K       
1 48273U 21034F   26199.19205281  .00182920  00000+0  11691-2 0  9990
2 48273  97.5639 288.5518 0006128 212.7149 147.3737 15.75793092286551
LEMUR-2-EMBRIONOVIS     
1 56970U 23084AQ  26198.91211885  .00008008  00000+0  21443-3 0  9997
2 56970  97.6330 344.3137 0008582 196.0880 164.0093 15.38274237172406
LEMUR-2-DEVERILL-M-T    
1 57391U 23100F   26199.08763222  .00014362  00000+0  34880-3 0  9999
2 57391  99.4447 246.8076 0004726 284.7623  75.3093 15.41179399166007
LEMUR-2-BASS            
1 58259U 23174D   26199.19692910  .00009752  00000+0  21531-3 0  9997
2 58259  97.3841 284.3636 0007474  69.1079 291.0969 15.44055518150144
LEMUR-2-JK0903EM1407    
1 58336U 23174CJ  26198.82496246  .00015897  00000+0  25490-3 0  9991
2 58336  97.3921 290.1925 0003365  23.2594 336.8811 15.53156673150488
LEMUR-2-MJR092620       
1 58340U 23174CN  26199.30294320  .00010659  00000+0  22078-3 0  9999
2 58340  97.3970 289.9293 0005021  19.3257 340.8181 15.45932190150453
LEMUR-2-NIMBUS2000      
1 58899U 24022A   26199.12537048  .00012818  00000+0  31046-3 0  9992
2 58899  97.4078  49.5370 0008447  18.5967 341.5587 15.41192070137030
LEMUR-2-VALHALLA        
1 58900U 24022B   26199.13144275  .00008835  00000+0  21936-3 0  9993
2 58900  97.4076  49.5102 0008897  14.1881 345.9614 15.40542637137036
LEMUR-2-CAEL            
1 58903U 24022E   26199.11444021  .00009726  00000+0  23070-3 0  9997
2 58903  97.4058  50.4848 0006785 358.7316   1.3912 15.41915567137100
LEMUR-2-JOHNNYTRUONG    
1 59146U 24043BA  26198.97147180  .00027464  00000+0  30707-3 0  9993
2 59146  97.5402 352.6392 0003948  86.3839 273.7870 15.62712150132847
LEMUR-2-TOMATOKECHUP    
1 60471U 24149D   26199.17518508  .00005790  00000+0  16424-3 0  9990
2 60471  97.3790 281.3129 0003402 116.6950 243.4643 15.36619049106926
LEMUR-2-STELLA          
1 60533U 24149BT  26199.18337024  .00006034  00000+0  35131-3 0  9990
2 60533  97.6730 281.7865 0001233 123.5601 236.5747 15.12405631105182
LEMUR-2-MARHISYAM       
1 60536U 24149BW  26199.17545449  .00005434  00000+0  32204-3 0  9995
2 60536  97.6873 282.2583 0002299  64.5787 295.5681 15.11810361105167
LEMUR-2-AHMED-ASRAR     
1 60576U 24149DN  26199.17894903  .00006248  00000+0  35425-3 0  9993
2 60576  97.7001 284.4767 0001472 192.2142 167.9053 15.13344566105255
LEMUR-2-LLOYD           
1 60577U 24149DP  26199.19737374  .00004288  00000+0  26952-3 0  9991
2 60577  97.6736 280.3538 0004468  64.5877 295.5814 15.09779519105073
LEMUR-2-SQUIRRELCOMM    
1 60578U 24149DQ  26199.19058431  .00002592  00000+0  17514-3 0  9992
2 60578  97.6701 280.0096 0004024 313.0050  47.0840 15.07461540105074
LEMUR-2-SIERRINI        
1 60579U 24149DR  26199.13866374  .00004898  00000+0  29269-3 0  9991
2 60579  97.6832 281.8796 0006321  83.4649 276.7300 15.11545513105137
LEMUR-2-WILSON          
1 62694U 25009CP  26199.14626662  .00000931  00000+0  89692-4 0  9993
2 62694  97.7017 277.0682 0001786 307.3709  52.7349 14.95281701 81987
LEMUR-2-STAR-FOX        
1 62696U 25009CR  26199.18961653  .00003626  00000+0  27503-3 0  9997
2 62696  97.6900 280.5755 0001884  30.7220 329.4115 15.02862528 82216
LEMUR-2-ARIANNA         
1 62699U 25009CU  26199.18807891  .00003800  00000+0  28793-3 0  9999
2 62699  97.6842 280.3241 0002196  39.3641 320.7744 15.02865359 82218
LEMUR-2-ALISIA          
1 62706U 25009DB  26199.02665105  .00004049  00000+0  30380-3 0  9992
2 62706  97.6965 280.9946 0004648 121.1027 239.0655 15.03199026104796
