OBJECT_NAME,OBJECT_ID,EPOCH,MEAN_MOTION,ECCENTRICITY,INCLINATION,RA_OF_ASC_NODE,ARG_OF_PERICENTER,MEAN_ANOMALY,EPHEMERIS_TYPE,CLASSIFICATION_TYPE,NORAD_CAT_ID,ELEMENT_SET_NO,REV_AT_EPOCH,BSTAR,MEAN_MOTION_DOT,MEAN_MOTION_DDOT
LEMUR-1,2014-033AL,2026-07-18T05:10:29.131680,14.85341695,.00474851,97.7913,348.3393,337.9146,22.0022,0,U,40044,999,65007,.86804628E-4,.705E-5,0
LEMUR-2-GREENBERG,2017-042N,2026-07-18T01:13:36.647040,15.32207983,.00073229,97.3835,19.5561,247.3182,112.7286,0,U,42837,999,49311,.31415728E-3,.9701E-4,0
LEMUR-2-ANDIS,2017-042P,2026-07-18T01:43:45.666912,15.35996922,.00073243,97.3688,19.8725,246.3680,113.6795,0,U,42838,999,49319,.35542868E-3,.12392E-3,0
LEMUR-2-MONSON,2017-042Q,2026-07-18T01:29:28.268736,15.28798185,.00054806,97.4096,19.4906,232.7356,127.3385,0,U,42839,999,49288,.28213113E-3,.7825E-4,0
LEMUR-2-FURIAUS,2017-042R,2026-07-18T01:34:57.806112,15.31188015,.0005737,97.3783,17.4560,317.1429,42.9364,0,U,42840,999,49293,.32216681E-3,.9635E-4,0
LEMUR-2-PETERG,2017-042S,2026-07-18T06:29:02.527296,15.35097463,.00035192,97.3998,24.3800,207.0916,153.0144,0,U,42841,999,49320,.32304305E-3,.10927E-3,0
LEMUR-2-DEMBITZ,2017-042T,2026-07-18T00:29:21.068736,15.31162504,.00051119,97.3834,20.4567,261.2280,98.8382,0,U,42842,999,49306,.30731886E-3,.9179E-4,0
LEMUR-2-ZACHARY,2017-042W,2026-07-18T06:35:01.489920,15.52907758,.00027421,97.3575,31.6314,230.4547,129.6464,0,U,42845,999,49402,.48660543E-3,.30216E-3,0
LEMUR-2-AMANDA-SVANTE,2021-034B,2026-07-18T04:29:06.754272,15.36074295,.00047014,97.5745,278.3300,135.7113,224.4507,0,U,48269,999,28581,.52025878E-3,.18224E-3,0
LEMUR-2-SPECIAL-K,2021-034F,2026-07-18T04:36:33.362784,15.75793092,.00061284,97.5639,288.5518,212.7149,147.3737,0,U,48273,999,28655,.11690989E-2,.18292E-2,0
LEMUR-2-EMBRIONOVIS,2023-084AQ,2026-07-17T21:53:27.068640,15.38274237,.00085829,97.6330,344.3137,196.0880,164.0093,0,U,56970,999,17240,.21443027E-3,.8008E-4,0
LEMUR-2-DEVERILL-M-T,2023-100F,2026-07-18T02:06:11.423808,15.41179399,.00047265,99.4447,246.8076,284.7623,75.3093,0,U,57391,999,16600,.34880268E-3,.14362E-3,0
LEMUR-2-BASS,2023-174D,2026-07-18T04:43:34.674240,15.44055518,.00074748,97.3841,284.3636,69.1079,291.0969,0,U,58259,999,15014,.21531383E-3,.9752E-4,0
LEMUR-2-JK0903EM1407,2023-174CJ,2026-07-17T19:47:56.756544,15.53156673,.00033659,97.3921,290.1925,23.2594,336.8811,0,U,58336,999,15048,.25490398E-3,.15897E-3,0
LEMUR-2-MJR092620,2023-174CN,2026-07-18T07:16:14.292480,15.45932190,.00050213,97.3970,289.9293,19.3257,340.8181,0,U,58340,999,15045,.22077739E-3,.10659E-3,0
LEMUR-2-NIMBUS2000,2024-022A,2026-07-18T03:00:32.009472,15.41192070,.00084471,97.4078,49.5370,18.5967,341.5587,0,U,58899,999,13703,.31046133E-3,.12818E-3,0
LEMUR-2-VALHALLA,2024-022B,2026-07-18T03:09:16.653600,15.40542637,.00088977,97.4076,49.5102,14.1881,345.9614,0,U,58900,999,13703,.21936087E-3,.8835E-4,0
LEMUR-2-CAEL,2024-022E,2026-07-18T02:44:47.634144,15.41915567,.00067853,97.4058,50.4848,358.7316,1.3912,0,U,58903,999,13710,.23069587E-3,.9726E-4,0
LEMUR-2-JOHNNYTRUONG,2024-043BA,2026-07-17T23:18:55.163520,15.62712150,.00039489,97.5402,352.6392,86.3839,273.7870,0,U,59146,999,13284,.30707175E-3,.27464E-3,0
LEMUR-2-TOMATOKECHUP,2024-149D,2026-07-18T04:12:15.990912,15.36619049,.0003402,97.3790,281.3129,116.6950,243.4643,0,U,60471,999,10692,.16424172E-3,.579E-4,0
LEMUR-2-STELLA,2024-149BT,2026-07-18T04:24:03.188736,15.12405631,.00012337,97.6730,281.7865,123.5601,236.5747,0,U,60533,999,10518,.35130774E-3,.6034E-4,0
LEMUR-2-MARHISYAM,2024-149BW,2026-07-18T04:12:39.267936,15.11810361,.00022992,97.6873,282.2583,64.5787,295.5681,0,U,60536,999,10516,.32203811E-3,.5434E-4,0
LEMUR-2-AHMED-ASRAR,2024-149DN,2026-07-18T04:17:41.196192,15.13344566,.00014726,97.7001,284.4767,192.2142,167.9053,0,U,60576,999,10525,.35425104E-3,.6248E-4,0
LEMUR-2-LLOYD,2024-149DP,2026-07-18T04:44:13.091136,15.09779519,.00044686,97.6736,280.3538,64.5877,295.5814,0,U,60577,999,10507,.2695226E-3,.4288E-4,0
LEMUR-2-SQUIRRELCOMM,2024-149DQ,2026-07-18T04:34:26.484384,15.07461540,.00040248,97.6701,280.0096,313.0050,47.0840,0,U,60578,999,10507,.17513663E-3,.2592E-4,0
LEMUR-2-SIERRINI,2024-149DR,2026-07-18T03:19:40.547136,15.11545513,.00063219,97.6832,281.8796,83.4649,276.7300,0,U,60579,999,10513,.29269489E-3,.4898E-4,0
LEMUR-2-WILSON,2025-009CP,2026-07-18T03:30:37.435968,14.95281701,.00017865,97.7017,277.0682,307.3709,52.7349,0,U,62694,999,8198,.89691958E-4,.931E-5,0
LEMUR-2-STAR-FOX,2025-009CR,2026-07-18T04:33:02.868192,15.02862528,.00018846,97.6900,280.5755,30.7220,329.4115,0,U,62696,999,8221,.2750332E-3,.3626E-4,0
LEMUR-2-ARIANNA,2025-009CU,2026-07-18T04:30:50.017824,15.02865359,.00021967,97.6842,280.3241,39.3641,320.7744,0,U,62699,999,8221,.28793444E-3,.38E-4,0
LEMUR-2-ALISIA,2025-009DB,2026-07-18T00:38:22.650720,15.03199026,.00046485,97.6965,280.9946,121.1027,239.0655,0,U,62706,999,10479,.3037975E-3,.4049E-4,0
